NORAD_CAT_ID,OBJECT_NAME,OBJECT_TYPE,EPOCH,MEAN_MOTION,ECCENTRICITY,INCLINATION,RA_OF_ASC_NODE,ARG_OF_PERICENTER,MEAN_ANOMALY,BSTAR,MEAN_MOTION_DOT,MEAN_MOTION_DDOT,TLE_LINE0,TLE_LINE1,TLE_LINE2,SEMIMAJOR_AXIS,PERIOD,APOGEE,PERIGEE,DECAYED
52369.0,STARLINK-3841,PAYLOAD,2023-03-28 23:30:33,15.08857274,0.0001306,53.2175,342.6598,94.6172,265.4969,0.00047019,7.207e-05,0.0,0 STARLINK-3841,1 52369U 22045AQ  23087.97955464  .00007207  00000-0  47019-3 0  9997,2 52369  53.2175 342.6598 0001306  94.6172 265.4969 15.08857274 53372,6917.828,95.436,540.596,538.789,0.0
52369.0,STARLINK-3841,PAYLOAD,2023-03-29 02:41:19,15.08862446,0.0001328,53.2175,342.064,97.0302,263.0842,0.00065137,0.000101,0.0,0 STARLINK-3841,1 52369U 22045AQ  23088.11203255  .00010100  00000-0  65137-3 0  9995,2 52369  53.2175 342.0640 0001328  97.0302 263.0842 15.08862446 53393,6917.812,95.436,540.595,538.758,0.0
52369.0,STARLINK-3841,PAYLOAD,2023-03-29 20:10:34,15.08833524,0.0001315,53.2181,338.7946,86.3868,273.7275,0.00055414,8.541e-05,0.0,0 STARLINK-3841,1 52369U 22045AQ  23088.84068029  .00008541  00000-0  55414-3 0  9996,2 52369  53.2181 338.7946 0001315  86.3868 273.7275 15.08833524 53501,6917.9,95.438,540.675,538.855,0.0
52369.0,STARLINK-3841,PAYLOAD,2023-03-29 23:21:21,15.08840371,0.000133,53.2182,338.2026,77.7353,282.3788,0.00059751,9.234e-05,0.0,0 STARLINK-3841,1 52369U 22045AQ  23088.97316061  .00009234  00000-0  59751-3 0  9990,2 52369  53.2182 338.2026 0001330  77.7353 282.3788 15.08840371 53521,6917.879,95.438,540.664,538.824,0.0
52369.0,STARLINK-3841,PAYLOAD,2023-03-30 23:12:08,15.0884344,0.0001273,53.2179,333.7396,78.4505,281.663,0.0013357,0.00021036,0.0,0 STARLINK-3841,1 52369U 22045AQ  23089.96676799  .00021036  00000-0  13357-2 0  9992,2 52369  53.2179 333.7396 0001273  78.4505 281.6630 15.08843440 53674,6917.87,95.437,540.616,538.854,0.0
52369.0,STARLINK-3841,PAYLOAD,2023-03-31 16:41:23,15.08828787,0.0001301,53.2175,330.4668,92.8622,267.2519,0.0005818,8.981e-05,0.0,0 STARLINK-3841,1 52369U 22045AQ  23090.69541435  .00008981  00000-0  58180-3 0  9990,2 52369  53.2175 330.4668 0001301  92.8622 267.2519 15.08828787 53783,6917.915,95.438,540.68,538.88,0.0
52369.0,STARLINK-3841,PAYLOAD,2023-04-01 00:38:19,15.08826924,0.0001099,53.2176,328.982,76.4054,283.706,0.00010159,1.329e-05,0.0,0 STARLINK-3841,1 52369U 22045AQ  23091.02661849  .00001329  00000-0  10159-3 0  9993,2 52369  53.2176 328.9820 0001099  76.4054 283.7060 15.08826924 53838,6917.92,95.438,540.546,539.025,0.0
52369.0,STARLINK-3841,PAYLOAD,2023-04-01 18:07:33,15.08853276,9.58e-05,53.2173,325.7102,68.6134,291.496,0.0005319,8.191e-05,0.0,0 STARLINK-3841,1 52369U 22045AQ  23091.75525301  .00008191  00000-0  53190-3 0  9991,2 52369  53.2173 325.7102 0000958  68.6134 291.4960 15.08853276 53945,6917.84,95.437,540.368,539.042,0.0
52369.0,STARLINK-3841,PAYLOAD,2023-04-01 22:53:43,15.08866778,8.88e-05,53.217,324.8183,67.0406,293.0679,0.0010203,0.00015999,0.0,0 STARLINK-3841,1 52369U 22045AQ  23091.95396997  .00015999  00000-0  10203-2 0  9991,2 52369  53.2170 324.8183 0000888  67.0406 293.0679 15.08866778 53977,6917.799,95.436,540.278,539.049,0.0
52369.0,STARLINK-3841,PAYLOAD,2023-04-02 14:47:34,15.08853706,7.39e-05,53.2166,321.8453,348.5991,11.4984,0.00044569,6.815e-05,0.0,0 STARLINK-3841,1 52369U 22045AQ  23092.61637001  .00006815  00000-0  44569-3 0  9999,2 52369  53.2166 321.8453 0000739 348.5991  11.4984 15.08853706 54070,6917.838,95.437,540.215,539.192,0.0
52369.0,STARLINK-3841,PAYLOAD,2023-04-02 21:09:06,15.08857108,0.0001146,53.2167,320.6557,68.698,291.4135,0.00053943,8.312e-05,0.0,0 STARLINK-3841,1 52369U 22045AQ  23092.88132866  .00008312  00000-0  53943-3 0  9997,2 52369  53.2167 320.6557 0001146  68.6980 291.4135 15.08857108 54117,6917.828,95.436,540.486,538.9,0.0
52369.0,STARLINK-3841,PAYLOAD,2023-04-03 14:38:21,15.08846237,0.0001276,53.2161,317.3853,99.3362,260.7775,0.00050653,7.784e-05,0.0,0 STARLINK-3841,1 52369U 22045AQ  23093.60997094  .00007784  00000-0  50653-3 0  9997,2 52369  53.2161 317.3853 0001276  99.3362 260.7775 15.08846237 54224,6917.861,95.437,540.609,538.844,0.0
52369.0,STARLINK-3841,PAYLOAD,2023-04-03 20:59:53,15.08842869,0.0001129,53.2154,316.1951,102.1338,257.9781,0.00040286,6.13e-05,0.0,0 STARLINK-3841,1 52369U 22045AQ  23093.87493049  .00006130  00000-0  40286-3 0  9992,2 52369  53.2154 316.1951 0001129 102.1338 257.9781 15.08842869 54261,6917.872,95.437,540.518,538.956,0.0
52369.0,STARLINK-3841,PAYLOAD,2023-04-03 22:35:17,15.08846297,0.0001006,53.2159,315.8983,86.9614,273.1493,0.00053918,8.305e-05,0.0,0 STARLINK-3841,1 52369U 22045AQ  23093.94117055  .00008305  00000-0  53918-3 0  9992,2 52369  53.2159 315.8983 0001006  86.9614 273.1493 15.08846297 54277,6917.861,95.437,540.422,539.03,0.0
52369.0,STARLINK-3841,PAYLOAD,2023-04-04 20:50:41,15.08842962,0.0001165,53.2153,311.7342,100.3376,259.7747,0.00031477,4.726e-05,0.0,0 STARLINK-3841,1 52369U 22045AQ  23094.86853241  .00004726  00000-0  31477-3 0  9997,2 52369  53.2153 311.7342 0001165 100.3376 259.7747 15.08842962 54410,6917.871,95.437,540.542,538.93,0.0
52369.0,STARLINK-3841,PAYLOAD,2023-04-05 07:58:23,15.08843297,0.000102,53.2168,309.652,88.8076,271.3033,0.00022503,3.296e-05,0.0,0 STARLINK-3841,1 52369U 22045AQ  23095.33221250  .00003296  00000-0  22503-3 0  9990,2 52369  53.2168 309.6520 0001020  88.8076 271.3033 15.08843297 54484,6917.87,95.437,540.441,539.03,0.0
52369.0,STARLINK-3841,PAYLOAD,2023-04-05 20:41:28,15.08841042,0.0001237,53.2163,307.2731,92.5804,267.533,9.8798e-05,1.285e-05,0.0,0 STARLINK-3841,1 52369U 22045AQ  23095.86213326  .00001285  00000-0  98798-4 0  9999,2 52369  53.2163 307.2731 0001237  92.5804 267.5330 15.08841042 54560,6917.877,95.437,540.598,538.886,0.0
52369.0,STARLINK-3841,PAYLOAD,2023-04-05 23:52:14,15.08841919,0.0001164,53.2171,306.6779,99.5954,260.5169,0.00010145,1.327e-05,0.0,0 STARLINK-3841,1 52369U 22045AQ  23095.99461184  .00001327  00000-0  10145-3 0  9996,2 52369  53.2171 306.6779 0001164  99.5954 260.5169 15.08841919 54584,6917.875,95.437,540.545,538.934,0.0
52369.0,STARLINK-3841,PAYLOAD,2023-04-07 06:04:34,15.08840777,0.0001126,53.2158,301.0287,83.7979,276.3142,9.9581e-05,1.297e-05,0.0,0 STARLINK-3841,1 52369U 22045AQ  23097.25317502  .00001297  00000-0  99581-4 0  9999,2 52369  53.2158 301.0287 0001126  83.7979 276.3142 15.08840777 54770,6917.878,95.438,540.522,538.964,0.0
52369.0,STARLINK-3841,PAYLOAD,2023-04-07 14:01:30,15.08834547,0.0001187,53.2157,299.542,88.4526,271.6602,0.00032916,4.954e-05,0.0,0 STARLINK-3841,1 52369U 22045AQ  23097.58437873  .00004954  00000-0  32916-3 0  9990,2 52369  53.2157 299.5420 0001187  88.4526 271.6602 15.08834547 54829,6917.897,95.438,540.583,538.941,0.0
52369.0,STARLINK-3841,PAYLOAD,2023-04-08 05:55:21,15.08830462,0.000114,53.2157,296.5684,90.8552,269.2571,-0.00010472,-1.954e-05,0.0,0 STARLINK-3841,1 52369U 22045AQ  23098.24677826 -.00001954  00000-0 -10472-3 0  9990,2 52369  53.2157 296.5684 0001140  90.8552 269.2571 15.08830462 54924,6917.91,95.438,540.563,538.986,0.0
52369.0,STARLINK-3841,PAYLOAD,2023-04-08 13:52:17,15.08834091,0.0001199,53.2157,295.0812,88.0378,272.0752,4.1743e-05,3.76e-06,0.0,0 STARLINK-3841,1 52369U 22045AQ  23098.57797817  .00000376  00000-0  41743-4 0  9990,2 52369  53.2157 295.0812 0001199  88.0378 272.0752 15.08834091 54970,6917.898,95.438,540.593,538.934,0.0
52369.0,STARLINK-3841,PAYLOAD,2023-04-08 20:13:49,15.08844925,0.0001206,53.2156,293.892,87.998,272.115,0.0002405,3.542e-05,0.0,0 STARLINK-3841,1 52369U 22045AQ  23098.84293393  .00003542  00000-0  24050-3 0  9999,2 52369  53.2156 293.8920 0001206  87.9980 272.1150 15.08844925 55017,6917.865,95.437,540.565,538.896,0.0
52369.0,STARLINK-3841,PAYLOAD,2023-04-09 05:46:08,15.08836106,0.0001257,53.2153,292.1073,87.7661,272.3475,0.00032307,4.857e-05,0.0,0 STARLINK-3841,1 52369U 22045AQ  23099.24037722  .00004857  00000-0  32307-3 0  9990,2 52369  53.2153 292.1073 0001257  87.7661 272.3475 15.08836106 55075,6917.892,95.438,540.627,538.888,0.0
52369.0,STARLINK-3841,PAYLOAD,2023-04-09 13:43:04,15.08839847,0.0001167,53.2152,290.6204,91.3962,268.7164,0.0005095,7.83e-05,0.0,0 STARLINK-3841,1 52369U 22045AQ  23099.57157789  .00007830  00000-0  50950-3 0  9990,2 52369  53.2152 290.6204 0001167  91.3962 268.7164 15.08839847 55123,6917.881,95.438,540.553,538.939,0.0
52369.0,STARLINK-3841,PAYLOAD,2023-04-09 21:39:59,15.08850686,0.0001189,53.2152,289.1336,92.8493,267.2635,0.0008039,0.00012533,0.0,0 STARLINK-3841,1 52369U 22045AQ  23099.90277654  .00012533  00000-0  80390-3 0  9998,2 52369  53.2152 289.1336 0001189  92.8493 267.2635 15.08850686 55177,6917.848,95.437,540.535,538.89,0.0
52369.0,STARLINK-3841,PAYLOAD,2023-04-10 07:12:18,15.08844032,0.000128,53.215,287.3495,86.5474,273.5664,0.00044634,6.823e-05,0.0,0 STARLINK-3841,1 52369U 22045AQ  23100.30021772  .00006823  00000-0  44634-3 0  9999,2 52369  53.2150 287.3495 0001280  86.5474 273.5664 15.08844032 55239,6917.868,95.437,540.619,538.848,0.0
52369.0,STARLINK-3841,PAYLOAD,2023-04-10 13:33:51,15.08849134,0.0001129,53.215,286.16,92.5461,267.566,0.00077664,0.00012097,0.0,0 STARLINK-3841,1 52369U 22045AQ  23100.56517765  .00012097  00000-0  77664-3 0  9998,2 52369  53.2150 286.1600 0001129  92.5461 267.5660 15.08849134 55270,6917.852,95.437,540.498,538.936,0.0
52369.0,STARLINK-3841,PAYLOAD,2023-04-10 21:30:46,15.08854542,0.0001198,53.2152,284.6732,87.2241,272.8888,0.00065564,0.00010166,0.0,0 STARLINK-3841,1 52369U 22045AQ  23100.89637468  .00010166  00000-0  65564-3 0  9998,2 52369  53.2152 284.6732 0001198  87.2241 272.8888 15.08854542 55320,6917.836,95.437,540.53,538.872,0.0
52369.0,STARLINK-3841,PAYLOAD,2023-04-11 11:49:15,15.08837205,0.0001329,53.215,281.9967,87.7399,272.3745,0.00010894,1.446e-05,0.0,0 STARLINK-3841,1 52369U 22045AQ  23101.49253935  .00001446  00000-0  10894-3 0  9995,2 52369  53.2150 281.9967 0001329  87.7399 272.3745 15.08837205 55417,6917.889,95.438,540.673,538.835,0.0
